STARLINK-30069          
1 56834U 23079M   26067.48212902 -.00002416  00000+0 -80472-4 0  9995
2 56834  42.9986 110.4464 0000469 272.6695  87.4103 15.26726881152740
STARLINK-34615          
1 66321U 25253C   26068.41897537  .00028856  00000+0  10534-2 0  9994
2 66321  42.9927 213.9600 0001516 149.7735 210.3204 15.27600643 20203
